COMMENT,ORIGINATOR,NORAD_CAT_ID,OBJECT_NAME,OBJECT_TYPE,CLASSIFICATION_TYPE,INTLDES,EPOCH,EPOCH_MICROSECONDS,MEAN_MOTION,ECCENTRICITY,INCLINATION,RA_OF_ASC_NODE,ARG_OF_PERICENTER,MEAN_ANOMALY,EPHEMERIS_TYPE,ELEMENT_SET_NO,REV_AT_EPOCH,BSTAR,MEAN_MOTION_DOT,MEAN_MOTION_DDOT,FILE,TLE_LINE0,TLE_LINE1,TLE_LINE2,OBJECT_ID,OBJECT_NUMBER,SEMIMAJOR_AXIS,PERIOD,APOGEE,PERIGEE,DECAYED
"GENERATED VIA SPACETRACK.ORG API","18 SPCS","48883","SPACEBEE-100","PAYLOAD","U","21059E","2022-06-24 00:06:30","871872","15.15872978","0.0009959","97.555","304.5428","85.7264","274.5106","0","999","5492","0.00034305","0.00006506","0","3501056","0 SPACEBEE-100","1 48883U 21059E   22175.00452398  .00006506  00000-0  34305-3 0  9991","2 48883  97.5550 304.5428 0009959  85.7264 274.5106 15.15872978 54922","2021-059E","48883","6896.467","94.995","525.200","511.463","0"
"GENERATED VIA SPACETRACK.ORG API","18 SPCS","48883","SPACEBEE-100","PAYLOAD","U","21059E","2022-06-24 00:06:30","871872","15.15872978","0.0009959","97.555","304.5428","85.7264","274.5106","0","999","5492","0.00034305","0.00006506","0","3501501","0 SPACEBEE-100","1 48883U 21059E   22175.00452398  .00006506  00000-0  34305-3 0  9991","2 48883  97.5550 304.5428 0009959  85.7264 274.5106 15.15872978 54922","2021-059E","48883","6896.467","94.995","525.200","511.463","0"
"GENERATED VIA SPACETRACK.ORG API","18 SPCS","48883","SPACEBEE-100","PAYLOAD","U","21059E","2022-06-25 07:47:36","254688","15.1589076","0.0009856","97.5551","305.8562","81.689","278.546","0","999","5512","0.00035728","0.00006783","0","3502222","0 SPACEBEE-100","1 48883U 21059E   22176.32472517  .00006783  00000-0  35728-3 0  9999","2 48883  97.5551 305.8562 0009856  81.6890 278.5460 15.15890760 55121","2021-059E","48883","6896.413","94.994","525.075","511.481","0"
"GENERATED VIA SPACETRACK.ORG API","18 SPCS","48883","SPACEBEE-100","PAYLOAD","U","21059E","2022-06-25 07:47:36","254688","15.1589076","0.0009856","97.5551","305.8562","81.689","278.546","0","999","5512","0.00035728","0.00006783","0","3502315","0 SPACEBEE-100","1 48883U 21059E   22176.32472517  .00006783  00000-0  35728-3 0  9999","2 48883  97.5551 305.8562 0009856  81.6890 278.5460 15.15890760 55121","2021-059E","48883","6896.413","94.994","525.075","511.481","0"
"GENERATED VIA SPACETRACK.ORG API","18 SPCS","48883","SPACEBEE-100","PAYLOAD","U","21059E","2022-06-25 20:28:02","40096","15.15898553","0.0009834","97.5552","306.3817","80.0075","280.2267","0","999","5520","0.00038765","0.00007367","0","3502557","0 SPACEBEE-100","1 48883U 21059E   22176.85280139  .00007367  00000-0  38765-3 0  9997","2 48883  97.5552 306.3817 0009834  80.0075 280.2267 15.15898553 55207","2021-059E","48883","6896.389","94.993","525.036","511.472","0"
"GENERATED VIA SPACETRACK.ORG API","18 SPCS","48883","SPACEBEE-100","PAYLOAD","U","21059E","2022-06-26 07:33:24","331680","15.1590909","0.0009772","97.5554","306.8413","78.5815","281.6515","0","999","5527","0.00050168","0.00009559","0","3503181","0 SPACEBEE-100","1 48883U 21059E   22177.31486495  .00009559  00000-0  50168-3 0  9998","2 48883  97.5554 306.8413 0009772  78.5815 281.6515 15.15909090 55278","2021-059E","48883","6896.357","94.993","524.961","511.483","0"
"GENERATED VIA SPACETRACK.ORG API","18 SPCS","48883","SPACEBEE-100","PAYLOAD","U","21059E","2022-06-26 20:13:49","596960","15.15916203","0.0009763","97.5557","307.3667","77.0262","283.206","0","999","5535","0.00044165","0.00008408","0","3503365","0 SPACEBEE-100","1 48883U 21059E   22177.84293515  .00008408  00000-0  44165-3 0  9997","2 48883  97.5557 307.3667 0009763  77.0262 283.2060 15.15916203 55354","2021-059E","48883","6896.335","94.992","524.933","511.468","0"
"GENERATED VIA SPACETRACK.ORG API","18 SPCS","48883","SPACEBEE-100","PAYLOAD","U","21059E","2022-06-26 21:48:52","731360","15.15917234","0.0009763","97.5557","307.4324","76.8338","283.3983","0","999","5536","0.00043856","0.00008349","0","3503441","0 SPACEBEE-100","1 48883U 21059E   22177.90894365  .00008349  00000-0  43856-3 0  9994","2 48883  97.5557 307.4324 0009763  76.8338 283.3983 15.15917234 55367","2021-059E","48883","6896.332","94.992","524.930","511.464","0"
"GENERATED VIA SPACETRACK.ORG API","18 SPCS","48883","SPACEBEE-100","PAYLOAD","U","21059E","2022-06-27 07:19:11","479872","15.15923364","0.000976","97.5559","307.8265","75.606","284.6256","0","999","5542","0.00041913","0.00007977","0","3503902","0 SPACEBEE-100","1 48883U 21059E   22178.30499398  .00007977  00000-0  41913-3 0  9994","2 48883  97.5559 307.8265 0009760  75.6060 284.6256 15.15923364 55428","2021-059E","48883","6896.314","94.992","524.910","511.448","0"
"GENERATED VIA SPACETRACK.ORG API","18 SPCS","48883","SPACEBEE-100","PAYLOAD","U","21059E","2022-06-27 21:34:39","365472","15.15929559","0.0009769","97.5562","308.4176","73.9163","286.3144","0","999","5551","0.00030594","0.00005804","0","3504144","0 SPACEBEE-100","1 48883U 21059E   22178.89906673  .00005804  00000-0  30594-3 0  9997","2 48883  97.5562 308.4176 0009769  73.9163 286.3144 15.15929559 55511","2021-059E","48883","6896.295","94.991","524.897","511.423","0"
"GENERATED VIA SPACETRACK.ORG API","18 SPCS","48883","SPACEBEE-100","PAYLOAD","U","21059E","2022-06-28 02:19:48","602784","15.1593154","0.0009778","97.5563","308.6146","73.3584","286.8721","0","999","5554","0.0002831","0.00005365","0","3504328","0 SPACEBEE-100","1 48883U 21059E   22179.09709031  .00005365  00000-0  28310-3 0  9994","2 48883  97.5563 308.6146 0009778  73.3584 286.8721 15.15931540 55544","2021-059E","48883","6896.289","94.991","524.897","511.411","0"
"GENERATED VIA SPACETRACK.ORG API","18 SPCS","48883","SPACEBEE-100","PAYLOAD","U","21059E","2022-06-28 08:40:00","876000","15.15934703","0.0009752","97.5564","308.8774","72.59","287.6398","0","999","5558","0.00026386","0.00004996","0","3504789","0 SPACEBEE-100","1 48883U 21059E   22179.36112125  .00004996  00000-0  26386-3 0  9996","2 48883  97.5564 308.8774 0009752  72.5900 287.6398 15.15934703 55586","2021-059E","48883","6896.279","94.991","524.870","511.419","0"
"GENERATED VIA SPACETRACK.ORG API","18 SPCS","48883","SPACEBEE-100","PAYLOAD","U","21059E","2022-06-28 19:45:22","262112","15.15939978","0.000976","97.5567","309.3371","71.2617","288.9674","0","999","5565","0.00024949","0.00004721","0","3504942","0 SPACEBEE-100","1 48883U 21059E   22179.82317433  .00004721  00000-0  24949-3 0  9995","2 48883  97.5567 309.3371 0009760  71.2617 288.9674 15.15939978 55656","2021-059E","48883","6896.263","94.991","524.859","511.398","0"
"GENERATED VIA SPACETRACK.ORG API","18 SPCS","48883","SPACEBEE-100","PAYLOAD","U","21059E","2022-06-29 08:25:46","573536","15.15944678","0.0009734","97.5568","309.8626","69.6905","290.5372","0","999","5573","0.00023789","0.00004499","0","3505429","0 SPACEBEE-100","1 48883U 21059E   22180.35123349  .00004499  00000-0  23789-3 0  9999","2 48883  97.5568 309.8626 0009734  69.6905 290.5372 15.15944678 55733","2021-059E","48883","6896.249","94.990","524.827","511.401","0"
"GENERATED VIA SPACETRACK.ORG API","18 SPCS","48883","SPACEBEE-100","PAYLOAD","U","21059E","2022-06-29 08:25:46","573536","15.15944678","0.0009734","97.5568","309.8626","69.6905","290.5372","0","999","5573","0.00023789","0.00004499","0","3505485","0 SPACEBEE-100","1 48883U 21059E   22180.35123349  .00004499  00000-0  23789-3 0  9999","2 48883  97.5568 309.8626 0009734  69.6905 290.5372 15.15944678 55733","2021-059E","48883","6896.249","94.990","524.827","511.401","0"
"GENERATED VIA SPACETRACK.ORG API","18 SPCS","48883","SPACEBEE-100","PAYLOAD","U","21059E","2022-06-29 21:06:10","745856","15.15948599","0.0009699","97.5569","310.3881","68.1789","292.0474","0","999","5581","0.00020735","0.00003913","0","3505610","0 SPACEBEE-100","1 48883U 21059E   22180.87929104  .00003913  00000-0  20735-3 0  9997","2 48883  97.5569 310.3881 0009699  68.1789 292.0474 15.15948599 55813","2021-059E","48883","6896.237","94.990","524.791","511.414","0"
"GENERATED VIA SPACETRACK.ORG API","18 SPCS","48883","SPACEBEE-100","PAYLOAD","U","21059E","2022-06-30 12:56:40","801632","15.15952823","0.0009662","97.557","311.045","66.1754","294.0491","0","999","5591","0.00017444","0.00003281","0","3505769","0 SPACEBEE-100","1 48883U 21059E   22181.53936113  .00003281  00000-0  17444-3 0  9990","2 48883  97.5570 311.0450 0009662  66.1754 294.0491 15.15952823 55912","2021-059E","48883","6896.224","94.990","524.753","511.426","0"
"GENERATED VIA SPACETRACK.ORG API","18 SPCS","48883","SPACEBEE-100","PAYLOAD","U","21059E","2022-06-30 20:51:55","766016","15.15955184","0.0009624","97.5571","311.3735","65.1292","295.094","0","999","5596","0.00017512","0.00003294","0","3505946","0 SPACEBEE-100","1 48883U 21059E   22181.86939544  .00003294  00000-0  17512-3 0  9997","2 48883  97.5571 311.3735 0009624  65.1292 295.0940 15.15955184 55964","2021-059E","48883","6896.217","94.990","524.719","511.445","0"
"GENERATED VIA SPACETRACK.ORG API","18 SPCS","48883","SPACEBEE-100","PAYLOAD","U","21059E","2022-07-01 07:57:16","653600","15.15958837","0.0009597","97.5571","311.8334","63.6927","296.5291","0","999","5603","0.0001829","0.00003444","0","3506285","0 SPACEBEE-100","1 48883U 21059E   22182.33144275  .00003444  00000-0  18290-3 0  9990","2 48883  97.5571 311.8334 0009597  63.6927 296.5291 15.15958837 56033","2021-059E","48883","6896.206","94.989","524.689","511.453","0"
"GENERATED VIA SPACETRACK.ORG API","18 SPCS","48883","SPACEBEE-100","PAYLOAD","U","21059E","2022-07-01 20:37:40","403424","15.15963023","0.0009563","97.5572","312.359","62.1302","298.0899","0","999","5611","0.00018945","0.0000357","0","3506502","0 SPACEBEE-100","1 48883U 21059E   22182.85949541  .00003570  00000-0  18945-3 0  9993","2 48883  97.5572 312.3590 0009563  62.1302 298.0899 15.15963023 56111","2021-059E","48883","6896.193","94.989","524.653","511.464","0"
